{
    "links": {
        "self": "http://www.neowsapp.com/rest/v1/neo/3325671?api_key=iIulBulltgU6a56xZRHN4H3l9WmuAYTsLGpBGhQ2"
    },
    "id": "3325671",
    "neo_reference_id": "3325671",
    "name": "(2006 EX)",
    "designation": "2006 EX",
    "nasa_jpl_url": "http://ssd.jpl.nasa.gov/sbdb.cgi?sstr=3325671",
    "absolute_magnitude_h": 25.0,
    "estimated_diameter": {
        "kilometers": {
            "estimated_diameter_min": 0.02658,
            "estimated_diameter_max": 0.0594346868
        },
        "meters": {
            "estimated_diameter_min": 26.58,
            "estimated_diameter_max": 59.4346868419
        },
        "miles": {
            "estimated_diameter_min": 0.0165160412,
            "estimated_diameter_max": 0.0369309908
        },
        "feet": {
            "estimated_diameter_min": 87.2047272,
            "estimated_diameter_max": 194.9956979785
        }
    },
    "is_potentially_hazardous_asteroid": false,
    "close_approach_data": [
        {
            "close_approach_date": "2006-03-01",
            "close_approach_date_full": "2006-Mar-01 19:18",
            "epoch_date_close_approach": 1141240680000,
            "relative_velocity": {
                "kilometers_per_second": "11.1002082285",
                "kilometers_per_hour": "39960.749622766",
                "miles_per_hour": "24830.0557864348"
            },
            "miss_distance": {
                "astronomical": "0.0853969032",
                "lunar": "33.2193953448",
                "kilometers": "12775194.823316184",
                "miles": "7938137.9668599792"
            },
            "orbiting_body": "Earth"
        },
        {
            "close_approach_date": "2006-08-19",
            "close_approach_date_full": "2006-Aug-19 16:42",
            "epoch_date_close_approach": 1156005720000,
            "relative_velocity": {
                "kilometers_per_second": "13.127802729",
                "kilometers_per_hour": "47260.0898244396",
                "miles_per_hour": "29365.5819245247"
            },
            "miss_distance": {
                "astronomical": "0.3086504173",
                "lunar": "120.0650123297",
                "kilometers": "46173445.002691151",
                "miles": "28690848.3123578438"
            },
            "orbiting_body": "Earth"
        }
    ],
    "orbital_data": {
        "orbit_id": "6",
        "orbit_determination_date": "2017-04-06 09:08:58",
        "first_observation_date": "2006-03-04",
        "last_observation_date": "2006-03-05",
        "data_arc_in_days": 1,
        "observations_used": 13,
        "orbit_uncertainty": "9",
        "minimum_orbit_intersection": ".0685373",
        "jupiter_tisserand_invariant": "5.563",
        "epoch_osculation": "2453799.5",
        "eccentricity": ".05283067717715641",
        "semi_major_axis": "1.105635337706508",
        "inclination": "21.45156087672247",
        "ascending_node_longitude": "159.9432166995387",
        "orbital_period": "424.6354945434213",
        "perihelion_distance": "1.047223874104479",
        "perihelion_argument": "40.27421308537961",
        "aphelion_distance": "1.164046801308537",
        "perihelion_time": "2453841.225906588158",
        "mean_anomaly": "324.6253632473936",
        "mean_motion": ".8477859355282605",
        "equinox": "J2000",
        "orbit_class": {
            "orbit_class_type": "AMO",
            "orbit_class_description": "Near-Earth asteroid orbits similar to that of 1221 Amor",
            "orbit_class_range": "1.017 AU < q (perihelion) < 1.3 AU"
        }
    },
    "is_sentry_object": false
}